[{"OBJECT_NAME":"STARLINK-34854","OBJECT_ID":"2025-189Q","EPOCH":"2026-03-09T15:45:56.909952","MEAN_MOTION":15.30209757,"ECCENTRICITY":0.00012288,"INCLINATION":53.1582,"RA_OF_ASC_NODE":206.7591,"ARG_OF_PERICENTER":92.5483,"MEAN_ANOMALY":267.5658,"EPHEMERIS_TYPE":0,"CLASSIFICATION_TYPE":"U","NORAD_CAT_ID":65337,"ELEMENT_SET_NO":999,"REV_AT_EPOCH":3104,"BSTAR":0.0010271719,"MEAN_MOTION_DOT":0.00030196,"MEAN_MOTION_DDOT":0},{"OBJECT_NAME":"OBJECT BC","OBJECT_ID":"2025-313BC","EPOCH":"2026-03-09T04:33:08.504064","MEAN_MOTION":15.29126358,"ECCENTRICITY":0.00084789,"INCLINATION":97.3985,"RA_OF_ASC_NODE":144.811,"ARG_OF_PERICENTER":328.9209,"MEAN_ANOMALY":31.1528,"EPHEMERIS_TYPE":0,"CLASSIFICATION_TYPE":"U","NORAD_CAT_ID":67298,"ELEMENT_SET_NO":999,"REV_AT_EPOCH":789,"BSTAR":0.0026410397,"MEAN_MOTION_DOT":0.00075331,"MEAN_MOTION_DDOT":0}]
